start=new Date('2021-09-01T00:00:00.000Z').valueOf();
sats=[{"EPOCH":"2021-08-31T10:19:48.116064","PERIAPSIS":"546.403","ELEMENT_SET_NO":"999","LAUNCH_DATE":"2021-02-04","TLE_LINE1":"1 47590U 21009AU  21243.43041801 -.00001320  00000-0 -69790-4 0  9993","TLE_LINE2":"2 47590  53.0543 254.4015 0001253  67.9088 292.2034 15.06381463 31639","OBJECT_NAME":"STARLINK-1995","OBJECT_TYPE":"PAYLOAD","DECAY_DATE":null,"APOAPSIS":"548.138","ECCENTRICITY":"0.00012530","GP_ID":"183815188","REF_FRAME":"TEME","INCLINATION":"53.0543","MEAN_ELEMENT_THEORY":"SGP4","ARG_OF_PERICENTER":"67.9088","COUNTRY_CODE":"US","FILE":"3106313","MEAN_MOTION_DOT":"-0.00001320","MEAN_ANOMALY":"292.2034","RA_OF_ASC_NODE":"254.4015","EPHEMERIS_TYPE":"0","SEMIMAJOR_AXIS":"6925.405","MEAN_MOTION":"15.06381463","TIME_SYSTEM":"UTC","MEAN_MOTION_DDOT":"0.0000000000000","BSTAR":"-0.00006979000000","REV_AT_EPOCH":"3163","SITE":"AFETR","RCS_SIZE":"LARGE","PERIOD":"95.593","NORAD_CAT_ID":"47590","CENTER_NAME":"EARTH","OBJECT_ID":"2021-009AU","CLASSIFICATION_TYPE":"U"},{"REV_AT_EPOCH":"3195","SITE":"AFETR","PERIOD":"95.592","RCS_SIZE":"LARGE","NORAD_CAT_ID":"47591","MEAN_MOTION":"15.06399071","SEMIMAJOR_AXIS":"6925.351","MEAN_MOTION_DDOT":"0.0000000000000","TIME_SYSTEM":"UTC","BSTAR":"0.00009688200000","CLASSIFICATION_TYPE":"U","OBJECT_ID":"2021-009AV","CENTER_NAME":"EARTH","OBJECT_NAME":"STARLINK-1996","DECAY_DATE":null,"OBJECT_TYPE":"PAYLOAD","PERIAPSIS":"546.603","EPOCH":"2021-08-31T16:49:54.705504","TLE_LINE1":"1 47591U 21009AV  21243.70132761  .00001162  00000-0  96882-4 0  9994","LAUNCH_DATE":"2021-02-04","ELEMENT_SET_NO":"999","TLE_LINE2":"2 47591  53.0539 233.1785 0000886  47.7605 312.3459 15.06399071 31959","FILE":"3106454","COUNTRY_CODE":"US","MEAN_MOTION_DOT":"0.00001162","MEAN_ANOMALY":"312.3459","RA_OF_ASC_NODE":"233.1785","EPHEMERIS_TYPE":"0","ECCENTRICITY":"0.00008860","APOAPSIS":"547.830","GP_ID":"183842010","INCLINATION":"53.0539","REF_FRAME":"TEME","ARG_OF_PERICENTER":"47.7605","MEAN_ELEMENT_THEORY":"SGP4"},{"CLASSIFICATION_TYPE":"U","CENTER_NAME":"EARTH","OBJECT_ID":"2021-009AW","PERIOD":"95.592","RCS_SIZE":"LARGE","NORAD_CAT_ID":"47592","REV_AT_EPOCH":"3167","SITE":"AFETR","BSTAR":"-0.00001743500000","SEMIMAJOR_AXIS":"6925.359","MEAN_MOTION":"15.06396734","TIME_SYSTEM":"UTC","MEAN_MOTION_DDOT":"0.0000000000000","RA_OF_ASC_NODE":"253.0525","EPHEMERIS_TYPE":"0","COUNTRY_CODE":"US","FILE":"3106454","MEAN_ANOMALY":"296.6850","MEAN_MOTION_DOT":"-0.00000541","REF_FRAME":"TEME","INCLINATION":"53.0550","ARG_OF_PERICENTER":"63.4251","MEAN_ELEMENT_THEORY":"SGP4","APOAPSIS":"547.985","ECCENTRICITY":"0.00011000","GP_ID":"183842762","OBJECT_TYPE":"PAYLOAD","DECAY_DATE":null,"OBJECT_NAME":"STARLINK-1997","TLE_LINE2":"2 47592  53.0550 253.0525 0001100  63.4251 296.6850 15.06396734 31679","EPOCH":"2021-08-31T17:35:02.426208","PERIAPSIS":"546.462","LAUNCH_DATE":"2021-02-04","ELEMENT_SET_NO":"999","TLE_LINE1":"1 47592U 21009AW  21243.73266697 -.00000541  00000-0 -17435-4 0  9993"},{"PERIAPSIS":"546.224","EPOCH":"2021-08-31T12:05:55.932576","TLE_LINE1":"1 47593U 21009AX  21243.50411959  .00000548  00000-0  55647-4 0  9994","ELEMENT_SET_NO":"999","LAUNCH_DATE":"2021-02-04","TLE_LINE2":"2 47593  53.0547 254.0881 0001418  69.0026 291.1115 15.06402497 31641","OBJECT_NAME":"STARLINK-1998","DECAY_DATE":null,"OBJECT_TYPE":"PAYLOAD","ECCENTRICITY":"0.00014180","APOAPSIS":"548.188","GP_ID":"183843012","INCLINATION":"53.0547","REF_FRAME":"TEME","MEAN_ELEMENT_THEORY":"SGP4","ARG_OF_PERICENTER":"69.0026","COUNTRY_CODE":"US","FILE":"3106454","MEAN_ANOMALY":"291.1115","MEAN_MOTION_DOT":"0.00000548","RA_OF_ASC_NODE":"254.0881","EPHEMERIS_TYPE":"0","MEAN_MOTION":"15.06402497","SEMIMAJOR_AXIS":"6925.341","MEAN_MOTION_DDOT":"0.0000000000000","TIME_SYSTEM":"UTC","BSTAR":"0.00005564700000","REV_AT_EPOCH":"3164","SITE":"AFETR","PERIOD":"95.592","RCS_SIZE":"LARGE","NORAD_CAT_ID":"47593","OBJECT_ID":"2021-009AX","CENTER_NAME":"EARTH","CLASSIFICATION_TYPE":"U"},{"SEMIMAJOR_AXIS":"6925.383","MEAN_MOTION":"15.06388774","TIME_SYSTEM":"UTC","MEAN_MOTION_DDOT":"0.0000000000000","BSTAR":"-0.00003472500000","REV_AT_EPOCH":"3167","SITE":"AFETR","PERIOD":"95.593","RCS_SIZE":"LARGE","NORAD_CAT_ID":"47594","CENTER_NAME":"EARTH","OBJECT_ID":"2021-009AY","CLASSIFICATION_TYPE":"U","EPOCH":"2021-08-31T17:40:21.300096","PERIAPSIS":"546.378","LAUNCH_DATE":"2021-02-04","ELEMENT_SET_NO":"999","TLE_LINE1":"1 47594U 21009AY  21243.73635764 -.00000798  00000-0 -34725-4 0  9995","TLE_LINE2":"2 47594  53.0549 253.0344 0001256  75.2993 284.8135 15.06388774 31674","OBJECT_NAME":"STARLINK-1999","OBJECT_TYPE":"PAYLOAD","DECAY_DATE":null,"APOAPSIS":"548.118","ECCENTRICITY":"0.00012560","GP_ID":"183841261","REF_FRAME":"TEME","INCLINATION":"53.0549","MEAN_ELEMENT_THEORY":"SGP4","ARG_OF_PERICENTER":"75.2993","FILE":"3106454","COUNTRY_CODE":"US","MEAN_MOTION_DOT":"-0.00000798","MEAN_ANOMALY":"284.8135","RA_OF_ASC_NODE":"253.0344","EPHEMERIS_TYPE":"0"},{"NORAD_CAT_ID":"47595","RCS_SIZE":"LARGE","PERIOD":"95.592","REV_AT_EPOCH":"3167","SITE":"AFETR","BSTAR":"0.00006486700000","MEAN_MOTION_DDOT":"0.0000000000000","TIME_SYSTEM":"UTC","MEAN_MOTION":"15.06403416","SEMIMAJOR_AXIS":"6925.338","CLASSIFICATION_TYPE":"U","OBJECT_ID":"2021-009AZ","CENTER_NAME":"EARTH","DECAY_DATE":null,"OBJECT_TYPE":"PAYLOAD","OBJECT_NAME":"STARLINK-2000","TLE_LINE2":"2 47595  53.0560 253.1017 0000916  57.6448 302.4630 15.06403416 31675","TLE_LINE1":"1 47595U 21009AZ  21243.72158849  .00000685  00000-0  64867-4 0  9992","LAUNCH_DATE":"2021-02-04","ELEMENT_SET_NO":"999","PERIAPSIS":"546.569","EPOCH":"2021-08-31T17:19:05.245536","EPHEMERIS_TYPE":"0","RA_OF_ASC_NODE":"253.1017","MEAN_MOTION_DOT":"0.00000685","MEAN_ANOMALY":"302.4630","COUNTRY_CODE":"US","FILE":"3106454","ARG_OF_PERICENTER":"57.6448","MEAN_ELEMENT_THEORY":"SGP4","INCLINATION":"53.0560","REF_FRAME":"TEME","GP_ID":"183841511","ECCENTRICITY":"0.00009160","APOAPSIS":"547.837"},{"SITE":"AFETR","REV_AT_EPOCH":"3167","NORAD_CAT_ID":"47596","RCS_SIZE":"LARGE","PERIOD":"95.592","MEAN_MOTION_DDOT":"0.0000000000000","TIME_SYSTEM":"UTC","MEAN_MOTION":"15.06396867","SEMIMAJOR_AXIS":"6925.358","BSTAR":"0.00005930000000","CLASSIFICATION_TYPE":"U","OBJECT_ID":"2021-009BA","CENTER_NAME":"EARTH","OBJECT_NAME":"STARLINK-2001","DECAY_DATE":null,"OBJECT_TYPE":"PAYLOAD","TLE_LINE1":"1 47596U 21009BA  21243.72527637  .00000602  00000-0  59300-4 0  9993","LAUNCH_DATE":"2021-02-04","ELEMENT_SET_NO":"999","PERIAPSIS":"546.245","EPOCH":"2021-08-31T17:24:23.878368","TLE_LINE2":"2 47596  53.0547 253.0845 0001412  62.2128 297.9004 15.06396867 31672","MEAN_ANOMALY":"297.9004","MEAN_MOTION_DOT":"0.00000602","FILE":"3106454","COUNTRY_CODE":"US","EPHEMERIS_TYPE":"0","RA_OF_ASC_NODE":"253.0845","GP_ID":"183842263","ECCENTRICITY":"0.00014120","APOAPSIS":"548.201","MEAN_ELEMENT_THEORY":"SGP4","ARG_OF_PERICENTER":"62.2128","INCLINATION":"53.0547","REF_FRAME":"TEME"},{"TLE_LINE2":"2 47597  53.0548 253.1195 0000867  37.8627 322.2423 15.06390732 31670","EPOCH":"2021-08-31T17:13:48.242208","PERIAPSIS":"546.642","LAUNCH_DATE":"2021-02-04","ELEMENT_SET_NO":"999","TLE_LINE1":"1 47597U 21009BB  21243.71791947 -.00001007  00000-0 -48732-4 0  9999","OBJECT_TYPE":"PAYLOAD","DECAY_DATE":null,"OBJECT_NAME":"STARLINK-2002","REF_FRAME":"TEME","INCLINATION":"53.0548","ARG_OF_PERICENTER":"37.8627","MEAN_ELEMENT_THEORY":"SGP4","APOAPSIS":"547.842","ECCENTRICITY":"0.00008670","GP_ID":"183842513","RA_OF_ASC_NODE":"253.1195","EPHEMERIS_TYPE":"0","FILE":"3106454","COUNTRY_CODE":"US","MEAN_MOTION_DOT":"-0.00001007","MEAN_ANOMALY":"322.2423","BSTAR":"-0.00004873200000","SEMIMAJOR_AXIS":"6925.377","MEAN_MOTION":"15.06390732","TIME_SYSTEM":"UTC","MEAN_MOTION_DDOT":"0.0000000000000","PERIOD":"95.593","RCS_SIZE":"LARGE","NORAD_CAT_ID":"47597","REV_AT_EPOCH":"3167","SITE":"AFETR","CENTER_NAME":"EARTH","OBJECT_ID":"2021-009BB","CLASSIFICATION_TYPE":"U"},{"TIME_SYSTEM":"UTC","MEAN_MOTION_DDOT":"0.0000000000000","SEMIMAJOR_AXIS":"6925.397","MEAN_MOTION":"15.06384288","BSTAR":"-0.00019336000000","SITE":"AFETR","REV_AT_EPOCH":"3209","NORAD_CAT_ID":"47598","RCS_SIZE":"LARGE","PERIOD":"95.593","CENTER_NAME":"EARTH","OBJECT_ID":"2021-009BC","CLASSIFICATION_TYPE":"U","LAUNCH_DATE":"2021-02-04","ELEMENT_SET_NO":"999","TLE_LINE1":"1 47598U 21009BC  21243.66170749 -.00003159  00000-0 -19336-3 0  9992","EPOCH":"2021-08-31T15:52:51.527136","PERIAPSIS":"546.427","TLE_LINE2":"2 47598  53.0787 223.2604 0001206  48.5692 311.5401 15.06384288 32091","OBJECT_NAME":"STARLINK-2003","OBJECT_TYPE":"PAYLOAD","DECAY_DATE":null,"GP_ID":"183841761","APOAPSIS":"548.097","ECCENTRICITY":"0.00012060","ARG_OF_PERICENTER":"48.5692","MEAN_ELEMENT_THEORY":"SGP4","REF_FRAME":"TEME","INCLINATION":"53.0787","MEAN_MOTION_DOT":"-0.00003159","MEAN_ANOMALY":"311.5401","FILE":"3106454","COUNTRY_CODE":"US","EPHEMERIS_TYPE":"0","RA_OF_ASC_NODE":"223.2604"},{"CLASSIFICATION_TYPE":"U","OBJECT_ID":"2021-009BD","CENTER_NAME":"EARTH","RCS_SIZE":"LARGE","PERIOD":"95.593","NORAD_CAT_ID":"47599","REV_AT_EPOCH":"3222","SITE":"AFETR","BSTAR":"-0.00001284300000","MEAN_MOTION":"15.06390601","SEMIMAJOR_AXIS":"6925.377","MEAN_MOTION_DDOT":"0.0000000000000","TIME_SYSTEM":"UTC","RA_OF_ASC_NODE":"213.4016","EPHEMERIS_TYPE":"0","FILE":"3106454","COUNTRY_CODE":"US","MEAN_MOTION_DOT":"-0.00000473","MEAN_ANOMALY":"314.0118","INCLINATION":"53.0557","REF_FRAME":"TEME","MEAN_ELEMENT_THEORY":"SGP4","ARG_OF_PERICENTER":"46.0990","ECCENTRICITY":"0.00014350","APOAPSIS":"548.236","GP_ID":"183842011","DECAY_DATE":null,"OBJECT_TYPE":"PAYLOAD","OBJECT_NAME":"STARLINK-2004","TLE_LINE2":"2 47599  53.0557 213.4016 0001435  46.0990 314.0118 15.06390601 32227","PERIAPSIS":"546.249","EPOCH":"2021-08-31T15:38:16.016928","TLE_LINE1":"1 47599U 21009BD  21243.65157427 -.00000473  00000-0 -12843-4 0  9993","ELEMENT_SET_NO":"999","LAUNCH_DATE":"2021-02-04"}];
